COMMENT,ORIGINATOR,NORAD_CAT_ID,OBJECT_NAME,OBJECT_TYPE,CLASSIFICATION_TYPE,INTLDES,EPOCH,EPOCH_MICROSECONDS,MEAN_MOTION,ECCENTRICITY,INCLINATION,RA_OF_ASC_NODE,ARG_OF_PERICENTER,MEAN_ANOMALY,EPHEMERIS_TYPE,ELEMENT_SET_NO,REV_AT_EPOCH,BSTAR,MEAN_MOTION_DOT,MEAN_MOTION_DDOT,FILE,TLE_LINE0,TLE_LINE1,TLE_LINE2,OBJECT_ID,OBJECT_NUMBER,SEMIMAJOR_AXIS,PERIOD,APOGEE,PERIGEE
GENERATED VIA SPACETRACK.ORG API,18 SPCS,41616,FLOCK 2P 5,PAYLOAD,U,16040T,4/2/2019 22:18,212608,15.25177165,0.0008559,97.3811,159.3972,306.6834,53.3617,0,999,15437,4.55E-05,1.07E-05,0,2436542,0 FLOCK 2P 5,1 41616U 16040T   19092.92957422 +.00001070 +00000-0 +45478-4 0  9990,2 41616 097.3811 159.3972 0008559 306.6834 053.3617 15.25177165154377,2016-040T,41616,6868.39,94.415,496.134,484.376
GENERATED VIA SPACETRACK.ORG API,18 SPCS,41616,FLOCK 2P 5,PAYLOAD,U,16040T,4/3/2019 3:02,860640,15.25177642,0.0008556,97.381,159.5914,305.8539,54.1903,0,999,15440,4.52E-05,1.06E-05,0,2437310,0 FLOCK 2P 5,1 41616U 16040T   19093.12639885 +.00001063 +00000-0 +45193-4 0  9999,2 41616 097.3810 159.5914 0008556 305.8539 054.1903 15.25177642154405,2016-040T,41616,6868.389,94.415,496.13,484.377
GENERATED VIA SPACETRACK.ORG API,18 SPCS,41616,FLOCK 2P 5,PAYLOAD,U,16040T,4/4/2019 4:13,322688,15.2518319,0.0008505,97.3808,160.6267,301.4944,58.5462,0,999,15456,5.93E-05,1.42E-05,0,2437527,0 FLOCK 2P 5,1 41616U 16040T   19094.17612642  .00001417  00000-0  59328-4 0  9995,2 41616  97.3808 160.6267 0008505 301.4944  58.5462 15.25183190154562,2016-040T,41616,6868.372,94.414,496.078,484.395
GENERATED VIA SPACETRACK.ORG API,18 SPCS,41616,FLOCK 2P 5,PAYLOAD,U,16040T,4/4/2019 18:23,66336,15.25185183,0.0008475,97.3808,161.209,299.1063,60.9326,0,999,15465,6.10E-05,1.46E-05,0,2438168,0 FLOCK 2P 5,1 41616U 16040T   19094.76659799 +.00001460 +00000-0 +61028-4 0  9992,2 41616 097.3808 161.2090 0008475 299.1063 060.9326 15.25185183154654,2016-040T,41616,6868.366,94.414,496.052,484.41
GENERATED VIA SPACETRACK.ORG API,18 SPCS,41616,FLOCK 2P 5,PAYLOAD,U,16040T,4/5/2019 11:43,769568,15.25187732,0.0008445,97.3807,161.9207,296.1345,63.9024,0,999,15476,6.38E-05,1.53E-05,0,2438613,0 FLOCK 2P 5,1 41616U 16040T   19095.48828437  .00001531  00000-0  63823-4 0  9993,2 41616  97.3807 161.9207 0008445 296.1345  63.9024 15.25187732154769,2016-040T,41616,6868.358,94.414,496.024,484.423
GENERATED VIA SPACETRACK.ORG API,18 SPCS,41616,FLOCK 2P 5,PAYLOAD,U,16040T,4/5/2019 13:17,277440,15.25188237,0.0008445,97.3807,161.9854,295.8894,64.1473,0,999,15477,6.63E-05,1.59E-05,0,2438682,0 FLOCK 2P 5,1 41616U 16040T   19095.55389210 +.00001593 +00000-0 +66300-4 0  9993,2 41616 097.3807 161.9854 0008445 295.8894 064.1473 15.25188237154775,2016-040T,41616,6868.357,94.414,496.022,484.421
GENERATED VIA SPACETRACK.ORG API,18 SPCS,41616,FLOCK 2P 5,PAYLOAD,U,16040T,4/5/2019 22:44,322944,15.25189858,0.000843,97.3806,162.3736,294.1944,65.8412,0,999,15483,6.90E-05,1.66E-05,0,2439111,0 FLOCK 2P 5,1 41616U 16040T   19095.94753846 +.00001661 +00000-0 +69000-4 0  9992,2 41616 097.3806 162.3736 0008430 294.1944 065.8412 15.25189858154838,2016-040T,41616,6868.352,94.414,496.007,484.427
GENERATED VIA SPACETRACK.ORG API,18 SPCS,41616,FLOCK 2P 5,PAYLOAD,U,16040T,4/6/2019 12:54,830720,15.25193741,0.0008374,97.3802,162.956,291.5624,68.4721,0,999,15492,8.68E-05,2.11E-05,0,2439062,0 FLOCK 2P 5,1 41616U 16040T   19096.53800730  .00002107  00000-0  86775-4 0  9997,2 41616  97.3802 162.9560 0008374 291.5624  68.4721 15.25193741154926,2016-040T,41616,6868.34,94.414,495.957,484.454
GENERATED VIA SPACETRACK.ORG API,18 SPCS,41616,FLOCK 2P 5,PAYLOAD,U,16040T,4/6/2019 20:47,263808,15.25194971,0.0008379,97.3801,163.2796,290.0404,69.9932,0,999,15497,8.46E-05,2.05E-05,0,2439530,0 FLOCK 2P 5,1 41616U 16040T   19096.86604472 +.00002051 +00000-0 +84551-4 0  9996,2 41616 097.3801 163.2796 0008379 290.0404 069.9932 15.25194971154976,2016-040T,41616,6868.337,94.414,495.957,484.447
GENERATED VIA SPACETRACK.ORG API,18 SPCS,41616,FLOCK 2P 5,PAYLOAD,U,16040T,4/7/2019 20:24,474080,15.25197753,0.00084,97.3803,164.2501,285.9903,74.041,0,999,15512,7.20E-05,1.74E-05,0,2439661,0 FLOCK 2P 5,1 41616U 16040T   19097.85015595  .00001737  00000-0  72038-4 0  9995,2 41616  97.3803 164.2501 0008400 285.9903  74.0410 15.25197753155122,2016-040T,41616,6868.328,94.413,495.963,484.424
GENERATED VIA SPACETRACK.ORG API,18 SPCS,41616,FLOCK 2P 5,PAYLOAD,U,16040T,4/7/2019 21:58,962080,15.25198065,0.0008397,97.3802,164.3148,285.7135,74.3177,0,999,15513,7.49E-05,1.81E-05,0,2439681,0 FLOCK 2P 5,1 41616U 16040T   19097.91576345 +.00001808 +00000-0 +74869-4 0  9990,2 41616 097.3802 164.3148 0008397 285.7135 074.3177 15.25198065155130,2016-040T,41616,6868.327,94.413,495.96,484.425
GENERATED VIA SPACETRACK.ORG API,18 SPCS,41616,FLOCK 2P 5,PAYLOAD,U,16040T,4/8/2019 21:35,31520,15.25200976,0.0008378,97.3801,165.2853,281.4967,78.533,0,999,15528,7.01E-05,1.69E-05,0,2440169,0 FLOCK 2P 5,1 41616U 16040T   19098.89987305 +.00001688 +00000-0 +70054-4 0  9998,2 41616 097.3801 165.2853 0008378 281.4967 078.5330 15.25200976155285,2016-040T,41616,6868.319,94.413,495.938,484.429
GENERATED VIA SPACETRACK.ORG API,18 SPCS,41616,FLOCK 2P 5,PAYLOAD,U,16040T,4/9/2019 3:53,892800,15.25201554,0.0008374,97.38,165.5441,280.3741,79.6553,0,999,15532,6.66E-05,1.60E-05,0,2440345,0 FLOCK 2P 5,1 41616U 16040T   19099.16230200  .00001601  00000-0  66608-4 0  9999,2 41616  97.3800 165.5441 0008374 280.3741  79.6553 15.25201554155321,2016-040T,41616,6868.317,94.413,495.933,484.43
GENERATED VIA SPACETRACK.ORG API,18 SPCS,41616,FLOCK 2P 5,PAYLOAD,U,16040T,4/9/2019 21:12,867680,15.25205349,0.0008366,97.38,166.2558,277.3738,82.6549,0,999,15543,7.29E-05,1.76E-05,0,2440634,0 FLOCK 2P 5,1 41616U 16040T   19099.88397995 +.00001759 +00000-0 +72871-4 0  9996,2 41616 097.3800 166.2558 0008366 277.3738 082.6549 15.25205349155438,2016-040T,41616,6868.305,94.413,495.916,484.424
GENERATED VIA SPACETRACK.ORG API,18 SPCS,41616,FLOCK 2P 5,PAYLOAD,U,16040T,4/10/2019 8:14,970048,15.25207009,0.0008367,97.3799,166.7087,275.3919,84.6365,0,999,15550,6.80E-05,1.64E-05,0,2440918,0 FLOCK 2P 5,1 41616U 16040T   19100.34322882  .00001637  00000-0  68038-4 0  9998,2 41616  97.3799 166.7087 0008367 275.3919  84.6365 15.25207009155508,2016-040T,41616,6868.3,94.413,495.912,484.419
GENERATED VIA SPACETRACK.ORG API,18 SPCS,41616,FLOCK 2P 5,PAYLOAD,U,16040T,4/10/2019 22:24,773664,15.25213851,0.0008349,97.3792,167.2911,272.5085,87.5197,0,999,15559,6.39E-05,1.53E-05,0,2441091,0 FLOCK 2P 5,1 41616U 16040T   19100.93368951 +.00001534 +00000-0 +63912-4 0  9992,2 41616 097.3792 167.2911 0008349 272.5085 087.5197 15.25213851155592,2016-040T,41616,6868.28,94.412,495.879,484.411
GENERATED VIA SPACETRACK.ORG API,18 SPCS,41616,FLOCK 2P 5,PAYLOAD,U,16040T,4/11/2019 15:43,253472,15.25216608,0.00084,97.3798,168.0027,269.6739,90.3537,0,999,15570,6.99E-05,1.68E-05,0,2441601,0 FLOCK 2P 5,1 41616U 16040T   19101.65536173  .00001684  00000-0  69874-4 0  9994,2 41616  97.3798 168.0027 0008400 269.6739  90.3537 15.25216608155702,2016-040T,41616,6868.272,94.412,495.906,484.367
GENERATED VIA SPACETRACK.ORG API,18 SPCS,41616,FLOCK 2P 5,PAYLOAD,U,16040T,4/12/2019 20:04,496960,15.25220723,0.0008414,97.3796,169.1673,264.6684,95.3594,0,999,15588,6.99E-05,1.68E-05,0,2442125,0 FLOCK 2P 5,1 41616U 16040T   19102.83627890  .00001684  00000-0  69869-4 0  9996,2 41616  97.3796 169.1673 0008414 264.6684  95.3594 15.25220723155888,2016-040T,41616,6868.259,94.412,495.903,484.345
GENERATED VIA SPACETRACK.ORG API,18 SPCS,41616,FLOCK 2P 5,PAYLOAD,U,16040T,4/12/2019 21:38,883872,15.25220996,0.0008418,97.3796,169.2319,264.2779,95.7499,0,999,15589,7.00E-05,1.69E-05,0,2442177,0 FLOCK 2P 5,1 41616U 16040T   19102.90188523 +.00001687 +00000-0 +69972-4 0  9997,2 41616 097.3796 169.2319 0008418 264.2779 095.7499 15.25220996155892,2016-040T,41616,6868.258,94.412,495.905,484.342
GENERATED VIA SPACETRACK.ORG API,18 SPCS,41616,FLOCK 2P 5,PAYLOAD,U,16040T,4/13/2019 22:50,919808,15.25227976,0.0008408,97.3793,170.2673,259.7019,100.3271,0,999,15605,9.40E-05,2.29E-05,0,2442733,0 FLOCK 2P 5,1 41616U 16040T   19103.95158472 +.00002292 +00000-0 +94034-4 0  9993,2 41616 097.3793 170.2673 0008408 259.7019 100.3271 15.25227976156054,2016-040T,41616,6868.237,94.412,495.877,484.328
GENERATED VIA SPACETRACK.ORG API,18 SPCS,41616,FLOCK 2P 5,PAYLOAD,U,16040T,4/14/2019 3:33,19200,15.25228872,0.0008414,97.3793,170.4614,258.8769,101.1523,0,999,15608,9.28E-05,2.26E-05,0,2442855,0 FLOCK 2P 5,1 41616U 16040T   19104.14840300  .00002261  00000-0  92798-4 0  9994,2 41616  97.3793 170.4614 0008414 258.8769 101.1523 15.25228872156088,2016-040T,41616,6868.235,94.412,495.879,484.321
GENERATED VIA SPACETRACK.ORG API,18 SPCS,41616,FLOCK 2P 5,PAYLOAD,U,16040T,4/14/2019 17:43,299232,15.2523046,0.0008424,97.3793,171.0437,256.3599,103.6701,0,999,15617,8.06E-05,1.95E-05,0,2443160,0 FLOCK 2P 5,1 41616U 16040T   19104.73885763 +.00001954 +00000-0 +80604-4 0  9992,2 41616 097.3793 171.0437 0008424 256.3599 103.6701 15.25230460156174,2016-040T,41616,6868.23,94.411,495.881,484.309
GENERATED VIA SPACETRACK.ORG API,18 SPCS,41616,FLOCK 2P 5,PAYLOAD,U,16040T,4/15/2019 11:03,228672,15.25232784,0.0008446,97.3793,171.7553,253.3349,106.6962,0,999,15628,7.43E-05,1.80E-05,0,2443452,0 FLOCK 2P 5,1 41616U 16040T   19105.46052348  .00001797  00000-0  74346-4 0  9999,2 41616  97.3793 171.7553 0008446 253.3349 106.6962 15.25232784156289,2016-040T,41616,6868.223,94.411,495.889,484.287
GENERATED VIA SPACETRACK.ORG API,18 SPCS,41616,FLOCK 2P 5,PAYLOAD,U,16040T,4/15/2019 22:04,734016,15.25232912,0.0008489,97.3791,172.208,251.6316,108.3999,0,999,15635,6.87E-05,1.66E-05,0,2443670,0 FLOCK 2P 5,1 41616U 16040T   19105.91976544 +.00001655 +00000-0 +68668-4 0  9995,2 41616 097.3791 172.2080 0008489 251.6316 108.3999 15.25232912156350,2016-040T,41616,6868.223,94.411,495.918,484.257
